OBJECT_NAME,OBJECT_ID,EPOCH,MEAN_MOTION,ECCENTRICITY,INCLINATION,RA_OF_ASC_NODE,ARG_OF_PERICENTER,MEAN_ANOMALY,EPHEMERIS_TYPE,CLASSIFICATION_TYPE,NORAD_CAT_ID,ELEMENT_SET_NO,REV_AT_EPOCH,BSTAR,MEAN_MOTION_DOT,MEAN_MOTION_DDOT
STARLINK-33641,2025-087X,2026-07-12T20:32:07.573344,15.31716475,.0000754,53.1608,357.4188,89.0765,271.0323,0,U,63718,999,6837,.39081E-3,.11788E-3,0
STARLINK-33727,2025-087Y,2026-07-12T21:12:47.704608,15.34416590,.0001021,53.1596,355.4759,82.6375,277.4743,0,U,63719,999,6840,.66054E-3,.22019E-3,0
STARLINK-33757,2025-087Z,2026-07-12T17:31:13.492128,15.30190596,.0001171,53.1613,358.7625,168.1468,191.9560,0,U,63720,999,6834,.27639E-3,.7833E-4,0
STARLINK-33774,2025-087AA,2026-07-12T20:45:34.399008,15.31709978,.0001078,53.1599,357.4838,63.7816,296.3297,0,U,63721,999,6837,.36088E-3,.10853E-3,0
STARLINK-33767,2025-087AB,2026-07-12T20:21:05.334624,15.30215245,.0000689,53.1612,358.0820,45.4882,314.6175,0,U,63722,999,6836,.63648E-3,.18547E-3,0
STARLINK-33806,2025-087AC,2026-07-12T20:30:12.042720,15.30207298,.0000711,53.1612,358.1195,72.3504,287.7575,0,U,63723,999,6836,.36314E-3,.10414E-3,0
STARLINK-11677 [DTC],2025-089A,2026-07-12T13:51:54.468000,15.70853050,.0000935,42.9978,259.7778,264.6881,95.3880,0,U,63751,999,6977,.91642E-3,.1189E-2,0
STARLINK-11702 [DTC],2025-089B,2026-07-13T02:57:42.097824,15.70871817,.0001465,42.9991,256.1118,245.2099,114.8617,0,U,63752,999,6986,.10966E-2,.142896E-2,0
STARLINK-11706 [DTC],2025-089C,2026-07-13T04:06:19.633248,15.70895955,.0002806,43.0039,255.6015,276.4203,83.6345,0,U,63753,999,6987,.98632E-3,.128396E-2,0
STARLINK-11662 [DTC],2025-089D,2026-07-12T13:28:58.179072,15.70852825,.0001433,42.9994,259.6459,255.4243,104.6465,0,U,63754,999,6982,.99435E-3,.12921E-2,0
STARLINK-11681 [DTC],2025-089E,2026-07-12T13:44:15.421344,15.70865153,.0002247,43.0013,259.7344,284.3443,75.7175,0,U,63755,999,6977,.95661E-3,.124285E-2,0
STARLINK-11688 [DTC],2025-089F,2026-07-12T05:43:30.415008,15.70912075,.0001398,42.9991,261.5178,230.9992,129.0752,0,U,63756,999,6961,.86945E-3,.112984E-2,0
STARLINK-11676 [DTC],2025-089G,2026-07-12T14:07:00.879168,15.70872169,.0001527,43.0001,258.9656,317.3023,42.7725,0,U,63757,999,6967,.89112E-3,.115654E-2,0
STARLINK-11705 [DTC],2025-089H,2026-07-12T13:36:36.859392,15.70858251,.0001693,42.9999,259.6891,271.1344,88.9330,0,U,63758,999,6972,.90636E-3,.117599E-2,0
STARLINK-11703 [DTC],2025-089J,2026-07-12T13:06:02.167488,15.71047687,.00019383,42.9991,259.5156,294.1685,65.8980,0,U,63759,999,6977,.14855255E-2,.196447E-2,0
STARLINK-11701 [DTC],2025-089K,2026-07-12T14:14:39.458400,15.70873092,.0001956,43.0001,259.0072,309.7019,50.3676,0,U,63760,999,6978,.11315E-2,.147554E-2,0
STARLINK-11660 [DTC],2025-089L,2026-07-12T12:58:22.821888,15.70877517,.00030009,42.9995,259.4698,285.0738,74.9797,0,U,63761,999,6972,.85289527E-3,.110646E-2,0
STARLINK-11699 [DTC],2025-089M,2026-07-12T06:21:44.773056,15.70844654,.0002922,42.9989,261.7284,287.2500,72.8048,0,U,63762,999,6972,.93997E-3,.121985E-2,0
STARLINK-11693 [DTC],2025-089N,2026-07-12T13:07:20.741376,15.70870986,.00012653,42.9990,259.5213,275.9301,84.1422,0,U,63763,999,6966,.11685787E-2,.152475E-2,0
STARLINK-33760,2025-089P,2026-07-13T00:27:21.744288,15.27602032,.0002538,43.0086,57.5606,261.8122,98.2442,0,U,63764,999,6812,.45383E-3,.12256E-3,0
STARLINK-33941,2025-089Q,2026-07-13T00:31:05.035584,15.27588198,.0000985,43.0046,57.5817,13.9943,346.0936,0,U,63765,999,6811,.43416E-3,.11707E-3,0
STARLINK-33824,2025-089R,2026-07-12T15:30:13.352832,15.27587549,.0001222,43.0009,59.9220,246.5987,113.4736,0,U,63766,999,6806,.63791E-3,.17337E-3,0
STARLINK-33808,2025-089S,2026-07-13T01:48:34.344000,15.27592270,.0001339,43.0033,57.1265,265.8048,94.2650,0,U,63767,999,6813,.39731E-3,.10691E-3,0
STARLINK-33844,2025-089T,2026-07-12T23:46:39.578304,15.27595142,.0001478,43.0031,57.3503,267.1249,92.9433,0,U,63768,999,6812,.52331E-3,.14173E-3,0
STARLINK-33907,2025-089U,2026-07-13T00:21:50.160096,15.27590950,.00017,43.0009,57.5364,39.6456,320.4520,0,U,63769,999,6807,.5769E-3,.15652E-3,0
STARLINK-33884,2025-089V,2026-07-12T23:48:30.520224,15.27597017,.0001369,43.0021,57.3582,267.9460,92.1235,0,U,63770,999,6807,.49782E-3,.13469E-3,0
STARLINK-33841,2025-089W,2026-07-12T23:59:36.354912,15.27594340,.0002324,43.0073,57.4130,259.5465,100.5124,0,U,63771,999,6807,.5159E-3,.13968E-3,0
STARLINK-33769,2025-089X,2026-07-13T01:18:57.704256,15.27589946,.0001534,43.0011,56.9694,260.3459,99.7219,0,U,63773,999,6812,.29596E-3,.7893E-4,0
STARLINK-33914,2025-089Y,2026-07-11T23:54:39.093984,15.27599410,.00012755,43.0029,59.2850,277.3260,82.7447,0,U,63774,999,6801,.49848501E-3,.13488E-3,0
STARLINK-33932,2025-091A,2026-07-13T00:48:09.146880,15.27599022,.0001538,43.0026,64.5049,277.5248,82.5429,0,U,63775,999,6811,.4621E-3,.12483E-3,0
STARLINK-33930,2025-091B,2026-07-13T00:03:58.561632,15.27593121,.0002091,42.9923,65.1440,30.8177,329.2797,0,U,63776,999,6806,.44358E-3,.11969E-3,0
STARLINK-33911,2025-091C,2026-07-13T00:43:59.451744,15.27590459,.0001659,43.0008,57.5158,263.3616,96.7046,0,U,63777,999,6815,.4688E-3,.12665E-3,0
STARLINK-33938,2025-091D,2026-07-12T23:38:03.353856,15.27590700,.0002246,42.9998,64.9977,284.2901,75.7701,0,U,63778,999,6815,.44972E-3,.12138E-3,0
STARLINK-33881,2025-091E,2026-07-13T01:47:21.842304,15.27597975,.0001436,43.0038,64.8176,272.1665,87.9022,0,U,63779,999,6807,.48511E-3,.13118E-3,0
STARLINK-33846,2025-091F,2026-07-12T23:58:24.252384,15.27584420,.0002185,42.9996,65.1036,236.1234,123.9410,0,U,63780,999,6811,.33929E-3,.9087E-4,0
STARLINK-33883,2025-091G,2026-07-12T23:52:51.488832,15.27593916,.0001402,42.9996,65.0758,282.4194,77.6500,0,U,63781,999,6806,.40939E-3,.11025E-3,0
STARLINK-33842,2025-091H,2026-07-12T23:32:30.133248,15.27592621,.0001485,43.0017,64.9692,268.9217,91.1465,0,U,63782,999,6815,.40246E-3,.10833E-3,0
STARLINK-33892,2025-091J,2026-07-12T21:56:29.630976,15.27600005,.0001738,43.0031,65.3276,260.8386,99.2270,0,U,63783,999,6805,.6722E-3,.18293E-3,0
STARLINK-33933,2025-091K,2026-07-12T23:32:02.569056,15.27589379,.0001225,42.9979,58.0123,273.1773,86.8938,0,U,63784,999,6825,.42658E-3,.11498E-3,0
STARLINK-33923,2025-091M,2026-07-12T23:39:54.283680,15.27594036,.0001638,43.0010,65.0037,262.9625,97.1040,0,U,63786,999,6801,.46331E-3,.12514E-3,0
STARLINK-33947,2025-091N,2026-07-13T00:11:21.611328,15.27592267,.0001021,43.0024,65.1752,275.1889,84.8846,0,U,63787,999,6806,.3863E-3,.10387E-3,0
STARLINK-33882,2025-091P,2026-07-12T15:38:01.516416,15.27591937,.0001489,43.0015,66.7917,266.1068,93.9614,0,U,63788,999,6800,.45887E-3,.12391E-3,0
STARLINK-33875,2025-091Q,2026-07-13T00:46:18.192000,15.27601358,.0001072,43.0030,64.4912,289.1873,70.8862,0,U,63789,999,6807,.55709E-3,.15109E-3,0
STARLINK-33869,2025-091R,2026-07-12T16:46:16.694112,15.27588789,.0000877,43.0044,66.2858,306.4850,53.5921,0,U,63790,999,6797,.46446E-3,.12544E-3,0
STARLINK-33935,2025-091S,2026-07-13T00:05:48.484032,15.27596653,.0001844,42.9964,65.1506,253.3137,106.7513,0,U,63791,999,6817,.64088E-3,.17425E-3,0
STARLINK-33916,2025-091T,2026-07-13T01:34:24.851424,15.27597550,.0001279,43.0018,64.7435,281.8653,78.2056,0,U,63792,999,6807,.53457E-3,.14485E-3,0
STARLINK-33925,2025-091U,2026-07-13T00:42:36.424800,15.27590979,.0001362,43.0037,64.4706,266.0477,94.0219,0,U,63793,999,6818,.50174E-3,.13575E-3,0
STARLINK-33870,2025-091V,2026-07-13T00:33:21.283200,15.27590336,.0001259,43.0039,64.4207,267.0414,93.0293,0,U,63794,999,6807,.38172E-3,.1026E-3,0
STARLINK-33867,2025-091W,2026-07-12T23:49:09.497856,15.27592961,.0000921,42.9999,65.0500,287.6881,72.3870,0,U,63795,999,6806,.41255E-3,.11112E-3,0
STARLINK-33918,2025-091X,2026-07-12T22:16:52.101120,15.27589502,.0002272,42.9931,65.4416,29.4525,330.6455,0,U,63796,999,6810,.41296E-3,.11122E-3,0
STARLINK-33712,2025-091Y,2026-07-12T23:42:55.300320,15.27589584,.0001354,43.0010,68.5455,256.0929,103.9772,0,U,63797,999,6802,.29864E-3,.7967E-4,0
STARLINK-33827,2025-091Z,2026-07-12T22:00:12.333024,15.27588866,.0000972,42.9981,65.3471,291.5378,68.5370,0,U,63798,999,6805,.48928E-3,.1323E-3,0
STARLINK-33899,2025-091AA,2026-07-12T23:23:15.110880,15.27614673,.0002056,43.0036,64.9128,247.7660,112.2973,0,U,63799,999,6817,.55926E-3,.15176E-3,0
STARLINK-33900,2025-091AB,2026-07-13T00:51:51.169824,15.27597230,.0001426,43.0036,64.5171,278.5438,81.5252,0,U,63800,999,6818,.49683E-3,.13442E-3,0
STARLINK-33975,2025-091AC,2026-07-13T00:31:29.344224,15.27600453,.0002715,43.0085,64.4053,254.3970,105.6582,0,U,63802,999,6818,.41836E-3,.11275E-3,0
STARLINK-33951,2025-091AD,2026-07-12T16:48:07.177248,15.27604039,.0001484,43.0047,66.2927,258.4405,101.6281,0,U,63803,999,6807,.44726E-3,.12075E-3,0
STARLINK-33909,2025-092A,2026-07-12T11:20:16.983456,15.27581614,.00017815,42.9989,188.2680,285.0017,75.0638,0,U,63804,999,6769,.35799461E-3,.9603E-4,0
STARLINK-34029,2025-092B,2026-07-12T01:47:57.435648,15.27570994,.00014612,42.9976,190.4369,268.9743,91.0941,0,U,63805,999,6763,.29756047E-3,.7933E-4,0
STARLINK-34102,2025-092C,2026-07-12T23:44:16.867104,15.27595881,.0000346,42.9962,185.2602,233.3963,126.6857,0,U,63806,999,6782,.3613E-3,.9698E-4,0
STARLINK-34109,2025-092D,2026-07-12T10:09:57.757824,15.27586558,.00014476,43.0007,187.8903,276.8880,83.1807,0,U,63807,999,6769,.47830037E-3,.12925E-3,0
STARLINK-34091,2025-092E,2026-07-12T07:38:39.559488,15.27580681,.00016632,43.0010,188.8277,273.3294,86.7367,0,U,63808,999,6772,.29666267E-3,.791E-4,0
STARLINK-34095,2025-092F,2026-07-13T01:25:50.824128,15.27583610,.0001576,42.9992,184.9333,267.3168,92.7503,0,U,63809,999,6778,.37153E-3,.9977E-4,0
STARLINK-34127,2025-092G,2026-07-13T00:28:28.301664,15.27554527,.0001202,43.0001,184.6267,254.1037,105.9682,0,U,63810,999,6778,.20411E-3,.5354E-4,0
STARLINK-34101,2025-092J,2026-07-12T23:58:51.907296,15.27589403,.0000822,42.9974,184.4675,270.8633,89.2124,0,U,63812,999,6772,.43096E-3,.11619E-3,0
STARLINK-34065,2025-092K,2026-07-13T00:05:06.561024,15.27585499,.0001103,42.9982,180.9943,260.7853,99.2874,0,U,63813,999,6776,.39303E-3,.10571E-3,0
